TRANSIT 16 [?]          
1 02807U 67048A   22217.51994602  .00000067  00000+0  88776-4 0  9994
2 02807  89.6529  34.7911 0022047  61.7386 352.6732 13.50318577717394
TRANSIT 17 [?]          
1 02965U 67092A   22218.20408024  .00000036  00000+0  36271-4 0  9992
2 02965  89.2402 119.6189 0046892 188.8280 284.5647 13.53031011705789
TRANSIT 18 [?]          
1 03133U 68012A   22218.16320455  .00000046  00000+0  53808-4 0  9995
2 03133  90.0046 271.6183 0077095 116.7072 297.9223 13.51157777680317
NNSS 19 [?]             
1 04507U 70067A   22217.81818152  .00000066  00000+0  82170-4 0  9997
2 04507  89.9198 238.9574 0170496 240.8480 117.5517 13.50832402556824
NNSS O-20 [?]           
1 06909U 73081A   22218.19490576  .00000086  00000+0  76404-4 0  9997
2 06909  89.8179 276.5175 0157825 147.3760 213.7274 13.70686918636108
TRANSAT [?]             
1 10457U 77106A   22217.70892324  .00000043  00000+0  52597-4 0  9995
2 10457  89.6831 120.9401 0026681 122.0701 266.1727 13.48682705202309
NOVA I [?]              
1 12458U 81044A   22218.22896507  .00000036  00000+0  65456-4 0  9999
2 12458  89.8879 107.1456 0012636 238.0275 241.2969 13.23067276990200
NOVA 3 [?]              
1 15362U 84110A   22217.86738847  .00000034  00000+0  59489-4 0  9991
2 15362  90.0953  67.4465 0033609 105.1352 266.3606 13.22835973825046
OSCAR 30 [?]            
1 15935U 85066A   22218.51291772  .00000038  00000+0  55778-4 0  9993
2 15935  90.1749  78.7899 0167273 297.6308 126.1921 13.35759668801154
OSCAR 24 [?]            
1 15936U 85066B   22217.83294041  .00000035  00000+0  50487-4 0  9999
2 15936  90.1698  70.7360 0167906 305.3158  64.0470 13.35619788802918
POLAR BEAR [?]          
1 17070U 86088A   22218.13241010  .00000056  00000+0  46626-4 0  9990
2 17070  89.5611 235.3261 0037938 210.9992 218.1392 13.74873547791777
OSCAR 27 [?]            
1 18361U 87080A   22217.48301660  .00000063  00000+0  89727-4 0  9999
2 18361  90.3288  35.8565 0105857 132.4060 228.6105 13.44567961711150
OSCAR 29 [?]            
1 18362U 87080B   22217.92926081  .00000099  00000+0  14949-3 0  9991
2 18362  90.3299  36.2031 0107020 151.3125 329.8056 13.44154645710544
OSCAR 23 [?]            
1 19070U 88033A   22217.93033966 -.00000002  00000+0 -18272-4 0  9999
2 19070  90.3353 338.3441 0189271 346.6930 130.7034 13.27524033660287
OSCAR 32 [?]            
1 19071U 88033B   22217.85379737  .00000030  00000+0  47965-4 0  9990
2 19071  90.3353 338.4281 0187174 334.7722 202.4562 13.27704032660101
NOVA 11 [?]             
1 19223U 88052A   22217.85537264  .00000021  00000+0  29712-4 0  9991
2 19223  89.9722  80.7568 0031435 146.3909 224.9002 13.22747538647545
OSCAR 25 [?]            
1 19419U 88074A   22217.92913860  .00000064  00000+0  93519-4 0  9993
2 19419  90.0046  17.9063 0097728 139.0748 332.4608 13.42298945662070
OSCAR 31 [?]            
1 19420U 88074B   22217.48518941  .00000101  00000+0  15658-3 0  9996
2 19420  90.0056  18.0872 0096006 134.5416 286.4503 13.42308871662121
